ZHUHAI-1 01 (CAS-4A)    
1 42761U 17034D   25106.81578799  .00192837  00000+0  25277-2 0  9997
2 42761  43.0127 278.3198 0021328 280.4223  79.4236 15.56909005434219
CARTOSAT-2E             
1 42767U 17036C   25106.44128490  .00011380  00000+0  54231-3 0  9999
2 42767  97.4831 166.6365 0002026 349.7952  10.3241 15.19278107433352
FORMOSAT-5              
1 42920U 17049A   25106.92024031  .00000909  00000+0  24198-3 0  9997
2 42920  98.2598 185.7506 0009918 313.5510  46.4861 14.50781513404863
SENTINEL-5P             
1 42969U 17064A   25106.90450236  .00000338  00000+0  18140-3 0  9991
2 42969  98.7546  47.9962 0001206  77.2334 282.8976 14.19511040389089
SKYSAT-C11              
1 42987U 17068A   25106.87928234  .00055795  00000+0  14957-2 0  9997
2 42987  97.3856 240.9592 0000869  76.6478 283.4863 15.37795255417355
SKYSAT-C10              
1 42988U 17068B   25106.88297785  .00039063  00000+0  12866-2 0  9996
2 42988  97.3969 237.7400 0005711 103.1157 257.0722 15.31359140417088
SKYSAT-C9               
1 42989U 17068C   25105.87239183  .00022338  00000+0  65597-3 0  9990
2 42989  97.3908 235.2802 0005570 201.8408 158.2599 15.35136847417141
SKYSAT-C8               
1 42990U 17068D   25106.92081852  .00039582  00000+0  13124-2 0  9994
2 42990  97.3989 236.6929 0001362  56.1192 304.0178 15.31155212416992
SKYSAT-C7               
1 42991U 17068E   25106.91799923  .00041887  00000+0  13202-2 0  9997
2 42991  97.3992 237.7803 0000949  37.9795 322.1514 15.32771442417060
SKYSAT-C6               
1 42992U 17068F   25106.87771090  .00042274  00000+0  14235-2 0  9996
2 42992  97.4023 238.5720 0002383 161.2763 198.8566 15.30637329417073
CARTOSAT-2F             
1 43111U 18004A   25106.80557566  .00019472  74094-7  92476-3 0  9994
2 43111  97.4588 167.8008 0000732 226.1826 133.9348 15.19283333402591
GAOFEN-1 02             
1 43259U 18031A   25106.82981104  .00003003  00000+0  43657-3 0  9996
2 43259  97.7771 170.1185 0003472 290.6921  69.3917 14.76645894379784
GAOFEN-1 03             
1 43260U 18031B   25106.94350216  .00003005  00000+0  43745-3 0  9995
2 43260  97.7764 170.1261 0005020 337.0418  23.0568 14.76583748379790
GAOFEN-1 04             
1 43262U 18031D   25106.91927806  .00004087  00000+0  59185-3 0  9995
2 43262  97.7768 170.2428 0001848  14.2727 345.8535 14.76622653379780
