[
  {
    "OBJECT_NAME": "ZHUHAI-1 01 (CAS-4A)",
    "OBJECT_ID": "2017-034D",
    "EPOCH": "2025-04-16T19:34:44.082336",
    "MEAN_MOTION": 15.56909005,
    "ECCENTRICITY": 0.0021328,
    "INCLINATION": 43.0127,
    "RA_OF_ASC_NODE": 278.3198,
    "ARG_OF_PERICENTER": 280.4223,
    "MEAN_ANOMALY": 79.4236,
    "EPHEMERIS_TYPE": 0,
    "CLASSIFICATION_TYPE": "U",
    "NORAD_CAT_ID": 42761,
    "ELEMENT_SET_NO": 999,
    "REV_AT_EPOCH": 43421,
    "BSTAR": 0.0025277,
    "MEAN_MOTION_DOT": 0.00192837,
    "MEAN_MOTION_DDOT": 0
  },
  {
    "OBJECT_NAME": "CARTOSAT-2E",
    "OBJECT_ID": "2017-036C",
    "EPOCH": "2025-04-16T10:35:27.015360",
    "MEAN_MOTION": 15.19278107,
    "ECCENTRICITY": 0.0002026,
    "INCLINATION": 97.4831,
    "RA_OF_ASC_NODE": 166.6365,
    "ARG_OF_PERICENTER": 349.7952,
    "MEAN_ANOMALY": 10.3241,
    "EPHEMERIS_TYPE": 0,
    "CLASSIFICATION_TYPE": "U",
    "NORAD_CAT_ID": 42767,
    "ELEMENT_SET_NO": 999,
    "REV_AT_EPOCH": 43335,
    "BSTAR": 0.00054231,
    "MEAN_MOTION_DOT": 0.0001138,
    "MEAN_MOTION_DDOT": 0
  },
  {
    "OBJECT_NAME": "FORMOSAT-5",
    "OBJECT_ID": "2017-049A",
    "EPOCH": "2025-04-16T22:05:08.762784",
    "MEAN_MOTION": 14.50781513,
    "ECCENTRICITY": 0.0009918,
    "INCLINATION": 98.2598,
    "RA_OF_ASC_NODE": 185.7506,
    "ARG_OF_PERICENTER": 313.551,
    "MEAN_ANOMALY": 46.4861,
    "EPHEMERIS_TYPE": 0,
    "CLASSIFICATION_TYPE": "U",
    "NORAD_CAT_ID": 42920,
    "ELEMENT_SET_NO": 999,
    "REV_AT_EPOCH": 40486,
    "BSTAR": 0.00024198,
    "MEAN_MOTION_DOT": 9.09e-6,
    "MEAN_MOTION_DDOT": 0
  },
  {
    "OBJECT_NAME": "SENTINEL-5P",
    "OBJECT_ID": "2017-064A",
    "EPOCH": "2025-04-16T21:42:29.003904",
    "MEAN_MOTION": 14.1951104,
    "ECCENTRICITY": 0.0001206,
    "INCLINATION": 98.7546,
    "RA_OF_ASC_NODE": 47.9962,
    "ARG_OF_PERICENTER": 77.2334,
    "MEAN_ANOMALY": 282.8976,
    "EPHEMERIS_TYPE": 0,
    "CLASSIFICATION_TYPE": "U",
    "NORAD_CAT_ID": 42969,
    "ELEMENT_SET_NO": 999,
    "REV_AT_EPOCH": 38908,
    "BSTAR": 0.0001814,
    "MEAN_MOTION_DOT": 3.38e-6,
    "MEAN_MOTION_DDOT": 0
  },
  {
    "OBJECT_NAME": "SKYSAT-C11",
    "OBJECT_ID": "2017-068A",
    "EPOCH": "2025-04-16T21:06:09.994176",
    "MEAN_MOTION": 15.37795255,
    "ECCENTRICITY": 8.69e-5,
    "INCLINATION": 97.3856,
    "RA_OF_ASC_NODE": 240.9592,
    "ARG_OF_PERICENTER": 76.6478,
    "MEAN_ANOMALY": 283.4863,
    "EPHEMERIS_TYPE": 0,
    "CLASSIFICATION_TYPE": "U",
    "NORAD_CAT_ID": 42987,
    "ELEMENT_SET_NO": 999,
    "REV_AT_EPOCH": 41735,
    "BSTAR": 0.0014957,
    "MEAN_MOTION_DOT": 0.00055795,
    "MEAN_MOTION_DDOT": 0
  },
  {
    "OBJECT_NAME": "SKYSAT-C10",
    "OBJECT_ID": "2017-068B",
    "EPOCH": "2025-04-16T21:11:29.286240",
    "MEAN_MOTION": 15.3135914,
    "ECCENTRICITY": 0.0005711,
    "INCLINATION": 97.3969,
    "RA_OF_ASC_NODE": 237.74,
    "ARG_OF_PERICENTER": 103.1157,
    "MEAN_ANOMALY": 257.0722,
    "EPHEMERIS_TYPE": 0,
    "CLASSIFICATION_TYPE": "U",
    "NORAD_CAT_ID": 42988,
    "ELEMENT_SET_NO": 999,
    "REV_AT_EPOCH": 41708,
    "BSTAR": 0.0012866,
    "MEAN_MOTION_DOT": 0.00039063,
    "MEAN_MOTION_DDOT": 0
  },
  {
    "OBJECT_NAME": "SKYSAT-C9",
    "OBJECT_ID": "2017-068C",
    "EPOCH": "2025-04-15T20:56:14.654112",
    "MEAN_MOTION": 15.35136847,
    "ECCENTRICITY": 0.000557,
    "INCLINATION": 97.3908,
    "RA_OF_ASC_NODE": 235.2802,
    "ARG_OF_PERICENTER": 201.8408,
    "MEAN_ANOMALY": 158.2599,
    "EPHEMERIS_TYPE": 0,
    "CLASSIFICATION_TYPE": "U",
    "NORAD_CAT_ID": 42989,
    "ELEMENT_SET_NO": 999,
    "REV_AT_EPOCH": 41714,
    "BSTAR": 0.00065597,
    "MEAN_MOTION_DOT": 0.00022338,
    "MEAN_MOTION_DDOT": 0
  },
  {
    "OBJECT_NAME": "SKYSAT-C8",
    "OBJECT_ID": "2017-068D",
    "EPOCH": "2025-04-16T22:05:58.720128",
    "MEAN_MOTION": 15.31155212,
    "ECCENTRICITY": 0.0001362,
    "INCLINATION": 97.3989,
    "RA_OF_ASC_NODE": 236.6929,
    "ARG_OF_PERICENTER": 56.1192,
    "MEAN_ANOMALY": 304.0178,
    "EPHEMERIS_TYPE": 0,
    "CLASSIFICATION_TYPE": "U",
    "NORAD_CAT_ID": 42990,
    "ELEMENT_SET_NO": 999,
    "REV_AT_EPOCH": 41699,
    "BSTAR": 0.0013124,
    "MEAN_MOTION_DOT": 0.00039582,
    "MEAN_MOTION_DDOT": 0
  },
  {
    "OBJECT_NAME": "SKYSAT-C7",
    "OBJECT_ID": "2017-068E",
    "EPOCH": "2025-04-16T22:01:55.133472",
    "MEAN_MOTION": 15.32771442,
    "ECCENTRICITY": 9.49e-5,
    "INCLINATION": 97.3992,
    "RA_OF_ASC_NODE": 237.7803,
    "ARG_OF_PERICENTER": 37.9795,
    "MEAN_ANOMALY": 322.1514,
    "EPHEMERIS_TYPE": 0,
    "CLASSIFICATION_TYPE": "U",
    "NORAD_CAT_ID": 42991,
    "ELEMENT_SET_NO": 999,
    "REV_AT_EPOCH": 41706,
    "BSTAR": 0.0013202,
    "MEAN_MOTION_DOT": 0.00041887,
    "MEAN_MOTION_DDOT": 0
  },
  {
    "OBJECT_NAME": "SKYSAT-C6",
    "OBJECT_ID": "2017-068F",
    "EPOCH": "2025-04-16T21:03:54.221760",
    "MEAN_MOTION": 15.30637329,
    "ECCENTRICITY": 0.0002383,
    "INCLINATION": 97.4023,
    "RA_OF_ASC_NODE": 238.572,
    "ARG_OF_PERICENTER": 161.2763,
    "MEAN_ANOMALY": 198.8566,
    "EPHEMERIS_TYPE": 0,
    "CLASSIFICATION_TYPE": "U",
    "NORAD_CAT_ID": 42992,
    "ELEMENT_SET_NO": 999,
    "REV_AT_EPOCH": 41707,
    "BSTAR": 0.0014235,
    "MEAN_MOTION_DOT": 0.00042274,
    "MEAN_MOTION_DDOT": 0
  },
  {
    "OBJECT_NAME": "CARTOSAT-2F",
    "OBJECT_ID": "2018-004A",
    "EPOCH": "2025-04-16T19:20:01.737024",
    "MEAN_MOTION": 15.19283333,
    "ECCENTRICITY": 7.32e-5,
    "INCLINATION": 97.4588,
    "RA_OF_ASC_NODE": 167.8008,
    "ARG_OF_PERICENTER": 226.1826,
    "MEAN_ANOMALY": 133.9348,
    "EPHEMERIS_TYPE": 0,
    "CLASSIFICATION_TYPE": "U",
    "NORAD_CAT_ID": 43111,
    "ELEMENT_SET_NO": 999,
    "REV_AT_EPOCH": 40259,
    "BSTAR": 0.00092476,
    "MEAN_MOTION_DOT": 0.00019472,
    "MEAN_MOTION_DDOT": 7.4094e-8
  },
  {
    "OBJECT_NAME": "GAOFEN-1 02",
    "OBJECT_ID": "2018-031A",
    "EPOCH": "2025-04-16T19:54:55.673856",
    "MEAN_MOTION": 14.76645894,
    "ECCENTRICITY": 0.0003472,
    "INCLINATION": 97.7771,
    "RA_OF_ASC_NODE": 170.1185,
    "ARG_OF_PERICENTER": 290.6921,
    "MEAN_ANOMALY": 69.3917,
    "EPHEMERIS_TYPE": 0,
    "CLASSIFICATION_TYPE": "U",
    "NORAD_CAT_ID": 43259,
    "ELEMENT_SET_NO": 999,
    "REV_AT_EPOCH": 37978,
    "BSTAR": 0.00043657,
    "MEAN_MOTION_DOT": 3.003e-5,
    "MEAN_MOTION_DDOT": 0
  },
  {
    "OBJECT_NAME": "GAOFEN-1 03",
    "OBJECT_ID": "2018-031B",
    "EPOCH": "2025-04-16T22:38:38.586624",
    "MEAN_MOTION": 14.76583748,
    "ECCENTRICITY": 0.000502,
    "INCLINATION": 97.7764,
    "RA_OF_ASC_NODE": 170.1261,
    "ARG_OF_PERICENTER": 337.0418,
    "MEAN_ANOMALY": 23.0568,
    "EPHEMERIS_TYPE": 0,
    "CLASSIFICATION_TYPE": "U",
    "NORAD_CAT_ID": 43260,
    "ELEMENT_SET_NO": 999,
    "REV_AT_EPOCH": 37979,
    "BSTAR": 0.00043745,
    "MEAN_MOTION_DOT": 3.005e-5,
    "MEAN_MOTION_DDOT": 0
  },
  {
    "OBJECT_NAME": "GAOFEN-1 04",
    "OBJECT_ID": "2018-031D",
    "EPOCH": "2025-04-16T22:03:45.624384",
    "MEAN_MOTION": 14.76622653,
    "ECCENTRICITY": 0.0001848,
    "INCLINATION": 97.7768,
    "RA_OF_ASC_NODE": 170.2428,
    "ARG_OF_PERICENTER": 14.2727,
    "MEAN_ANOMALY": 345.8535,
    "EPHEMERIS_TYPE": 0,
    "CLASSIFICATION_TYPE": "U",
    "NORAD_CAT_ID": 43262,
    "ELEMENT_SET_NO": 999,
    "REV_AT_EPOCH": 37978,
    "BSTAR": 0.00059185,
    "MEAN_MOTION_DOT": 4.087e-5,
    "MEAN_MOTION_DDOT": 0
  }
]
